{
    "links": {
        "self": "http://www.neowsapp.com/rest/v1/neo/3781597?api_key=iIulBulltgU6a56xZRHN4H3l9WmuAYTsLGpBGhQ2"
    },
    "id": "3781597",
    "neo_reference_id": "3781597",
    "name": "(2017 SP2)",
    "designation": "2017 SP2",
    "nasa_jpl_url": "http://ssd.jpl.nasa.gov/sbdb.cgi?sstr=3781597",
    "absolute_magnitude_h": 25.4,
    "estimated_diameter": {
        "kilometers": {
            "estimated_diameter_min": 0.022108281,
            "estimated_diameter_max": 0.0494356193
        },
        "meters": {
            "estimated_diameter_min": 22.1082810359,
            "estimated_diameter_max": 49.435619262
        },
        "miles": {
            "estimated_diameter_min": 0.0137374447,
            "estimated_diameter_max": 0.0307178602
        },
        "feet": {
            "estimated_diameter_min": 72.5337327539,
            "estimated_diameter_max": 162.1903570994
        }
    },
    "is_potentially_hazardous_asteroid": false,
    "close_approach_data": [
        {
            "close_approach_date": "2017-09-17",
            "close_approach_date_full": "2017-Sep-17 04:50",
            "epoch_date_close_approach": 1505623800000,
            "relative_velocity": {
                "kilometers_per_second": "22.1186351096",
                "kilometers_per_hour": "79627.0863945211",
                "miles_per_hour": "49477.1748766401"
            },
            "miss_distance": {
                "astronomical": "0.0151149601",
                "lunar": "5.8797194789",
                "kilometers": "2261165.836094987",
                "miles": "1405023.2987533406"
            },
            "orbiting_body": "Earth"
        }
    ],
    "orbital_data": {
        "orbit_id": "3",
        "orbit_determination_date": "2019-11-22 04:56:06",
        "first_observation_date": "2017-09-18",
        "last_observation_date": "2017-09-22",
        "data_arc_in_days": 4,
        "observations_used": 36,
        "orbit_uncertainty": "8",
        "minimum_orbit_intersection": ".0149655",
        "jupiter_tisserand_invariant": "3.147",
        "epoch_osculation": "2458016.5",
        "eccentricity": ".6302740149367276",
        "semi_major_axis": "2.30401338055629",
        "inclination": "30.67521403082877",
        "ascending_node_longitude": "355.2537157007118",
        "orbital_period": "1277.397089368189",
        "perihelion_distance": ".8518536167251345",
        "perihelion_argument": "304.4433578811355",
        "aphelion_distance": "3.756173144387445",
        "perihelion_time": "2457975.151876949472",
        "mean_anomaly": "11.65285596944055",
        "mean_motion": ".2818230940059986",
        "equinox": "J2000",
        "orbit_class": {
            "orbit_class_type": "APO",
            "orbit_class_description": "Near-Earth asteroid orbits which cross the Earth’s orbit similar to that of 1862 Apollo",
            "orbit_class_range": "a (semi-major axis) > 1.0 AU; q (perihelion) < 1.017 AU"
        }
    },
    "is_sentry_object": false
}